start=new Date('2022-05-20T00:00:00.000Z').valueOf();
sats=[{"MEAN_MOTION_DOT":"0.00000346","PERIOD":"95.592","MEAN_ANOMALY":"274.9175","EPHEMERIS_TYPE":"0","TLE_LINE2":"2 47868  53.0571 330.7657 0001293  85.1961 274.9175 15.06402155 67087","TLE_LINE1":"1 47868U 21021J   22139.86946676  .00000346  00000-0  42111-4 0  9994","SITE":"AFETR","NORAD_CAT_ID":"47868","OBJECT_ID":"2021-021J","PERIAPSIS":"546.312","CLASSIFICATION_TYPE":"U","REF_FRAME":"TEME","RA_OF_ASC_NODE":"330.7657","DECAY_DATE":null,"REV_AT_EPOCH":"6708","OBJECT_NAME":"STARLINK-2323","BSTAR":"0.00004211100000","ARG_OF_PERICENTER":"85.1961","COUNTRY_CODE":"US","OBJECT_TYPE":"PAYLOAD","MEAN_MOTION_DDOT":"0.0000000000000","LAUNCH_DATE":"2021-03-14","APOAPSIS":"548.102","ECCENTRICITY":"0.00012930","GP_ID":"203961413","EPOCH":"2022-05-19T20:52:01.928064","INCLINATION":"53.0571","FILE":"3453598","MEAN_MOTION":"15.06402155","MEAN_ELEMENT_THEORY":"SGP4","SEMIMAJOR_AXIS":"6925.342","RCS_SIZE":"LARGE","ELEMENT_SET_NO":"999","TIME_SYSTEM":"UTC","CENTER_NAME":"EARTH"},{"REF_FRAME":"TEME","CLASSIFICATION_TYPE":"U","PERIAPSIS":"546.293","DECAY_DATE":null,"RA_OF_ASC_NODE":"20.4634","OBJECT_NAME":"STARLINK-2324","REV_AT_EPOCH":"6697","BSTAR":"0.00009692300000","ARG_OF_PERICENTER":"52.8337","MEAN_MOTION_DOT":"0.00001163","MEAN_ANOMALY":"307.2772","PERIOD":"95.592","EPHEMERIS_TYPE":"0","OBJECT_ID":"2021-021K","NORAD_CAT_ID":"47869","SITE":"AFETR","TLE_LINE1":"1 47869U 21021K   22139.93857327  .00001163  00000-0  96923-4 0  9995","TLE_LINE2":"2 47869  53.0532  20.4634 0001313  52.8337 307.2772 15.06403676 66973","GP_ID":"203986585","ECCENTRICITY":"0.00013130","MEAN_ELEMENT_THEORY":"SGP4","SEMIMAJOR_AXIS":"6925.337","MEAN_MOTION":"15.06403676","FILE":"3453812","EPOCH":"2022-05-19T22:31:32.730528","INCLINATION":"53.0532","ELEMENT_SET_NO":"999","RCS_SIZE":"LARGE","CENTER_NAME":"EARTH","TIME_SYSTEM":"UTC","OBJECT_TYPE":"PAYLOAD","COUNTRY_CODE":"US","MEAN_MOTION_DDOT":"0.0000000000000","LAUNCH_DATE":"2021-03-14","APOAPSIS":"548.112"},{"OBJECT_NAME":"STARLINK-2326","REV_AT_EPOCH":"6627","BSTAR":"0.00003418800000","ARG_OF_PERICENTER":"44.8287","PERIAPSIS":"545.888","CLASSIFICATION_TYPE":"U","REF_FRAME":"TEME","DECAY_DATE":null,"RA_OF_ASC_NODE":"49.5328","EPHEMERIS_TYPE":"0","OBJECT_ID":"2021-021L","TLE_LINE1":"1 47870U 21021L   22139.02769166  .00000228  00000-0  34188-4 0  9996","TLE_LINE2":"2 47870  53.0569  49.5328 0001936  44.8287 315.2858 15.06394923 66274","SITE":"AFETR","NORAD_CAT_ID":"47870","MEAN_MOTION_DOT":"0.00000228","MEAN_ANOMALY":"315.2858","PERIOD":"95.592","ELEMENT_SET_NO":"999","RCS_SIZE":"LARGE","TIME_SYSTEM":"UTC","CENTER_NAME":"EARTH","ECCENTRICITY":"0.00019360","GP_ID":"203944954","MEAN_MOTION":"15.06394923","MEAN_ELEMENT_THEORY":"SGP4","SEMIMAJOR_AXIS":"6925.364","INCLINATION":"53.0569","EPOCH":"2022-05-19T00:39:52.559424","FILE":"3453038","LAUNCH_DATE":"2021-03-14","APOAPSIS":"548.570","OBJECT_TYPE":"PAYLOAD","COUNTRY_CODE":"US","MEAN_MOTION_DDOT":"0.0000000000000"},{"BSTAR":"0.00021617000000","ARG_OF_PERICENTER":"59.4593","REV_AT_EPOCH":"6686","OBJECT_NAME":"STARLINK-2327","RA_OF_ASC_NODE":"20.4817","DECAY_DATE":null,"CLASSIFICATION_TYPE":"U","PERIAPSIS":"545.968","REF_FRAME":"TEME","TLE_LINE1":"1 47871U 21021M   22139.93488881  .00002940  00000-0  21617-3 0  9994","TLE_LINE2":"2 47871  53.0553  20.4817 0001780  59.4593 300.6571 15.06404254 66862","SITE":"AFETR","NORAD_CAT_ID":"47871","OBJECT_ID":"2021-021M","EPHEMERIS_TYPE":"0","PERIOD":"95.592","MEAN_ANOMALY":"300.6571","MEAN_MOTION_DOT":"0.00002940","TIME_SYSTEM":"UTC","CENTER_NAME":"EARTH","RCS_SIZE":"LARGE","ELEMENT_SET_NO":"999","EPOCH":"2022-05-19T22:26:14.393184","INCLINATION":"53.0553","FILE":"3453812","MEAN_MOTION":"15.06404254","MEAN_ELEMENT_THEORY":"SGP4","SEMIMAJOR_AXIS":"6925.336","ECCENTRICITY":"0.00017800","GP_ID":"203988085","LAUNCH_DATE":"2021-03-14","APOAPSIS":"548.433","MEAN_MOTION_DDOT":"0.0000000000000","COUNTRY_CODE":"US","OBJECT_TYPE":"PAYLOAD"},{"APOAPSIS":"445.894","LAUNCH_DATE":"2021-03-14","MEAN_MOTION_DDOT":"0.0000000000000","OBJECT_TYPE":"PAYLOAD","COUNTRY_CODE":"US","CENTER_NAME":"EARTH","TIME_SYSTEM":"UTC","ELEMENT_SET_NO":"999","RCS_SIZE":"LARGE","MEAN_ELEMENT_THEORY":"SGP4","SEMIMAJOR_AXIS":"6818.435","MEAN_MOTION":"15.41969298","FILE":"3453599","INCLINATION":"53.0526","EPOCH":"2022-05-19T11:52:23.914272","GP_ID":"203961420","ECCENTRICITY":"0.00082040","OBJECT_ID":"2021-021N","NORAD_CAT_ID":"47872","SITE":"AFETR","TLE_LINE2":"2 47872  53.0526 324.5157 0008204 275.1578  84.8490 15.41969298 67142","TLE_LINE1":"1 47872U 21021N   22139.49472123  .00271025  00000-0  60538-2 0  9994","EPHEMERIS_TYPE":"0","MEAN_ANOMALY":"84.8490","PERIOD":"93.387","MEAN_MOTION_DOT":"0.00271025","ARG_OF_PERICENTER":"275.1578","BSTAR":"0.00605380000000","OBJECT_NAME":"STARLINK-2328","REV_AT_EPOCH":"6714","DECAY_DATE":null,"RA_OF_ASC_NODE":"324.5157","REF_FRAME":"TEME","PERIAPSIS":"434.706","CLASSIFICATION_TYPE":"U"},{"OBJECT_TYPE":"PAYLOAD","COUNTRY_CODE":"US","MEAN_MOTION_DDOT":"0.0000000000000","APOAPSIS":"548.353","LAUNCH_DATE":"2021-03-14","ECCENTRICITY":"0.00016050","GP_ID":"203944704","MEAN_MOTION":"15.06390859","SEMIMAJOR_AXIS":"6925.377","MEAN_ELEMENT_THEORY":"SGP4","EPOCH":"2022-05-19T09:15:23.834592","INCLINATION":"53.0555","FILE":"3453038","ELEMENT_SET_NO":"999","RCS_SIZE":"LARGE","TIME_SYSTEM":"UTC","CENTER_NAME":"EARTH","MEAN_MOTION_DOT":"0.00000367","MEAN_ANOMALY":"311.9479","PERIOD":"95.593","EPHEMERIS_TYPE":"0","OBJECT_ID":"2021-021P","TLE_LINE1":"1 47873U 21021P   22139.38569253  .00000367  00000-0  43561-4 0  9992","TLE_LINE2":"2 47873  53.0555  22.9470 0001605  48.1646 311.9479 15.06390859 66775","NORAD_CAT_ID":"47873","SITE":"AFETR","PERIAPSIS":"546.130","CLASSIFICATION_TYPE":"U","REF_FRAME":"TEME","DECAY_DATE":null,"RA_OF_ASC_NODE":"22.9470","OBJECT_NAME":"STARLINK-2329","REV_AT_EPOCH":"6677","BSTAR":"0.00004356100000","ARG_OF_PERICENTER":"48.1646"},{"LAUNCH_DATE":"2021-03-14","APOAPSIS":"548.330","COUNTRY_CODE":"US","OBJECT_TYPE":"PAYLOAD","MEAN_MOTION_DDOT":"0.0000000000000","RCS_SIZE":"LARGE","ELEMENT_SET_NO":"999","TIME_SYSTEM":"UTC","CENTER_NAME":"EARTH","ECCENTRICITY":"0.00015870","GP_ID":"203944455","INCLINATION":"53.0576","EPOCH":"2022-05-19T06:16:53.319072","FILE":"3453038","MEAN_MOTION":"15.06394357","MEAN_ELEMENT_THEORY":"SGP4","SEMIMAJOR_AXIS":"6925.366","EPHEMERIS_TYPE":"0","TLE_LINE1":"1 47874U 21021Q   22139.26172823  .00001099  00000-0  92690-4 0  9993","TLE_LINE2":"2 47874  53.0576 338.4846 0001587  49.1121 311.0006 15.06394357 67392","NORAD_CAT_ID":"47874","SITE":"AFETR","OBJECT_ID":"2021-021Q","MEAN_MOTION_DOT":"0.00001099","PERIOD":"95.592","MEAN_ANOMALY":"311.0006","REV_AT_EPOCH":"6739","OBJECT_NAME":"STARLINK-2330","ARG_OF_PERICENTER":"49.1121","BSTAR":"0.00009269000000","PERIAPSIS":"546.132","CLASSIFICATION_TYPE":"U","REF_FRAME":"TEME","RA_OF_ASC_NODE":"338.4846","DECAY_DATE":null},{"REV_AT_EPOCH":"6665","OBJECT_NAME":"STARLINK-2331","BSTAR":"0.00007649000000","ARG_OF_PERICENTER":"85.2426","PERIAPSIS":"546.294","CLASSIFICATION_TYPE":"U","REF_FRAME":"TEME","RA_OF_ASC_NODE":"34.1752","DECAY_DATE":null,"EPHEMERIS_TYPE":"0","TLE_LINE2":"2 47875  53.0558  34.1752 0001339  85.2426 274.8716 15.06397590 66657","TLE_LINE1":"1 47875U 21021R   22139.11200972  .00000858  00000-0  76490-4 0  9997","NORAD_CAT_ID":"47875","SITE":"AFETR","OBJECT_ID":"2021-021R","MEAN_MOTION_DOT":"0.00000858","PERIOD":"95.592","MEAN_ANOMALY":"274.8716","RCS_SIZE":"LARGE","ELEMENT_SET_NO":"999","TIME_SYSTEM":"UTC","CENTER_NAME":"EARTH","ECCENTRICITY":"0.00013390","GP_ID":"203943204","EPOCH":"2022-05-19T02:41:17.639808","INCLINATION":"53.0558","FILE":"3453038","MEAN_MOTION":"15.06397590","SEMIMAJOR_AXIS":"6925.356","MEAN_ELEMENT_THEORY":"SGP4","LAUNCH_DATE":"2021-03-14","APOAPSIS":"548.148","COUNTRY_CODE":"US","OBJECT_TYPE":"PAYLOAD","MEAN_MOTION_DDOT":"0.0000000000000"},{"MEAN_MOTION_DOT":"0.00000659","PERIOD":"95.592","MEAN_ANOMALY":"295.8116","EPHEMERIS_TYPE":"0","NORAD_CAT_ID":"47876","SITE":"AFETR","TLE_LINE2":"2 47876  53.0565  29.7556 0001909  64.3070 295.8116 15.06397418 66278","TLE_LINE1":"1 47876U 21021S   22140.09615307  .00000659  00000-0  63173-4 0  9992","OBJECT_ID":"2021-021S","REF_FRAME":"TEME","PERIAPSIS":"545.899","CLASSIFICATION_TYPE":"U","RA_OF_ASC_NODE":"29.7556","DECAY_DATE":null,"REV_AT_EPOCH":"6627","OBJECT_NAME":"STARLINK-2332","BSTAR":"0.00006317300000","ARG_OF_PERICENTER":"64.3070","COUNTRY_CODE":"US","OBJECT_TYPE":"PAYLOAD","MEAN_MOTION_DDOT":"0.0000000000000","LAUNCH_DATE":"2021-03-14","APOAPSIS":"548.544","GP_ID":"203997794","ECCENTRICITY":"0.00019090","FILE":"3454102","INCLINATION":"53.0565","EPOCH":"2022-05-20T02:18:27.625248","SEMIMAJOR_AXIS":"6925.356","MEAN_ELEMENT_THEORY":"SGP4","MEAN_MOTION":"15.06397418","RCS_SIZE":"LARGE","ELEMENT_SET_NO":"999","CENTER_NAME":"EARTH","TIME_SYSTEM":"UTC"},{"MEAN_ANOMALY":"301.6839","PERIOD":"95.593","MEAN_MOTION_DOT":"-0.00000060","OBJECT_ID":"2021-021T","NORAD_CAT_ID":"47877","SITE":"AFETR","TLE_LINE2":"2 47877  53.0568  29.9853 0001852  58.4331 301.6839 15.06391782 66260","TLE_LINE1":"1 47877U 21021T   22140.04455840 -.00000060  00000-0  14852-4 0  9999","EPHEMERIS_TYPE":"0","DECAY_DATE":null,"RA_OF_ASC_NODE":"29.9853","REF_FRAME":"TEME","CLASSIFICATION_TYPE":"U","PERIAPSIS":"545.956","BSTAR":"0.00001485200000","ARG_OF_PERICENTER":"58.4331","OBJECT_NAME":"STARLINK-2333","REV_AT_EPOCH":"6626","MEAN_MOTION_DDOT":"0.0000000000000","OBJECT_TYPE":"PAYLOAD","COUNTRY_CODE":"US","APOAPSIS":"548.521","LAUNCH_DATE":"2021-03-14","SEMIMAJOR_AXIS":"6925.374","MEAN_ELEMENT_THEORY":"SGP4","MEAN_MOTION":"15.06391782","FILE":"3453909","EPOCH":"2022-05-20T01:04:09.845760","INCLINATION":"53.0568","GP_ID":"203993528","ECCENTRICITY":"0.00018520","CENTER_NAME":"EARTH","TIME_SYSTEM":"UTC","ELEMENT_SET_NO":"999","RCS_SIZE":"LARGE"}];
